[{"OBJECT_NAME":"MESON-1","OBJECT_ID":"2024-043AK","EPOCH":"2026-03-09T21:36:16.481664","MEAN_MOTION":15.29893494,"ECCENTRICITY":0.00095452,"INCLINATION":97.5469,"RA_OF_ASC_NODE":205.2839,"ARG_OF_PERICENTER":227.1432,"MEAN_ANOMALY":132.9007,"EPHEMERIS_TYPE":0,"CLASSIFICATION_TYPE":"U","NORAD_CAT_ID":59131,"ELEMENT_SET_NO":999,"REV_AT_EPOCH":11189,"BSTAR":0.0002974823,"MEAN_MOTION_DOT":8.544e-5,"MEAN_MOTION_DDOT":0},{"OBJECT_NAME":"STARLINK-31731","OBJECT_ID":"2024-071Q","EPOCH":"2026-03-09T03:05:19.525344","MEAN_MOTION":15.27579788,"ECCENTRICITY":1.589e-5,"INCLINATION":42.9998,"RA_OF_ASC_NODE":342.5812,"ARG_OF_PERICENTER":254.2936,"MEAN_ANOMALY":105.7898,"EPHEMERIS_TYPE":0,"CLASSIFICATION_TYPE":"U","NORAD_CAT_ID":59498,"ELEMENT_SET_NO":999,"REV_AT_EPOCH":10812,"BSTAR":1.436676e-5,"MEAN_MOTION_DOT":1.34e-6,"MEAN_MOTION_DDOT":0}]
